{
    "links": {
        "self": "http://www.neowsapp.com/rest/v1/neo/3353633?api_key=iIulBulltgU6a56xZRHN4H3l9WmuAYTsLGpBGhQ2"
    },
    "id": "3353633",
    "neo_reference_id": "3353633",
    "name": "(2006 UE64)",
    "designation": "2006 UE64",
    "nasa_jpl_url": "http://ssd.jpl.nasa.gov/sbdb.cgi?sstr=3353633",
    "absolute_magnitude_h": 28.0,
    "estimated_diameter": {
        "kilometers": {
            "estimated_diameter_min": 0.0066765941,
            "estimated_diameter_max": 0.0149293183
        },
        "meters": {
            "estimated_diameter_min": 6.676594135,
            "estimated_diameter_max": 14.9293183439
        },
        "miles": {
            "estimated_diameter_min": 0.004148642,
            "estimated_diameter_max": 0.0092766455
        },
        "feet": {
            "estimated_diameter_min": 21.9048371017,
            "estimated_diameter_max": 48.9807047955
        }
    },
    "is_potentially_hazardous_asteroid": false,
    "close_approach_data": [
        {
            "close_approach_date": "2006-10-20",
            "close_approach_date_full": "2006-Oct-20 18:52",
            "epoch_date_close_approach": 1161370320000,
            "relative_velocity": {
                "kilometers_per_second": "12.0912133261",
                "kilometers_per_hour": "43528.3679737854",
                "miles_per_hour": "27046.8350890446"
            },
            "miss_distance": {
                "astronomical": "0.002136329",
                "lunar": "0.831031981",
                "kilometers": "319590.26801923",
                "miles": "198584.184076174"
            },
            "orbiting_body": "Moon"
        },
        {
            "close_approach_date": "2006-10-21",
            "close_approach_date_full": "2006-Oct-21 02:40",
            "epoch_date_close_approach": 1161398400000,
            "relative_velocity": {
                "kilometers_per_second": "11.8070648405",
                "kilometers_per_hour": "42505.4334256513",
                "miles_per_hour": "26411.2233416221"
            },
            "miss_distance": {
                "astronomical": "0.0011367493",
                "lunar": "0.4421954777",
                "kilometers": "170055.274003991",
                "miles": "105667.4474014358"
            },
            "orbiting_body": "Earth"
        },
        {
            "close_approach_date": "2009-11-01",
            "close_approach_date_full": "2009-Nov-01 23:02",
            "epoch_date_close_approach": 1257116520000,
            "relative_velocity": {
                "kilometers_per_second": "17.4535618411",
                "kilometers_per_hour": "62832.8226278786",
                "miles_per_hour": "39041.872482306"
            },
            "miss_distance": {
                "astronomical": "0.205701561",
                "lunar": "80.017907229",
                "kilometers": "30772515.38127507",
                "miles": "19121154.398213166"
            },
            "orbiting_body": "Earth"
        },
        {
            "close_approach_date": "2012-11-11",
            "close_approach_date_full": "2012-Nov-11 15:05",
            "epoch_date_close_approach": 1352646300000,
            "relative_velocity": {
                "kilometers_per_second": "23.5247427557",
                "kilometers_per_hour": "84689.0739203605",
                "miles_per_hour": "52622.4970701262"
            },
            "miss_distance": {
                "astronomical": "0.4124787217",
                "lunar": "160.4542227413",
                "kilometers": "61705938.186642779",
                "miles": "38342292.0334731902"
            },
            "orbiting_body": "Earth"
        }
    ],
    "orbital_data": {
        "orbit_id": "8",
        "orbit_determination_date": "2017-04-06 09:07:47",
        "first_observation_date": "2006-10-23",
        "last_observation_date": "2006-10-26",
        "data_arc_in_days": 3,
        "observations_used": 16,
        "orbit_uncertainty": "8",
        "minimum_orbit_intersection": ".000410069",
        "jupiter_tisserand_invariant": "4.863",
        "epoch_osculation": "2454033.5",
        "eccentricity": ".3843567566594219",
        "semi_major_axis": "1.320158819866634",
        "inclination": "7.859967966253596",
        "ascending_node_longitude": "27.23152761013082",
        "orbital_period": "554.0356352323776",
        "perihelion_distance": ".8127468575873648",
        "perihelion_argument": "289.9660998901053",
        "aphelion_distance": "1.827570782145904",
        "perihelion_time": "2453978.351136851784",
        "mean_anomaly": "35.8345013764875",
        "mean_motion": ".6497776985933518",
        "equinox": "J2000",
        "orbit_class": {
            "orbit_class_type": "APO",
            "orbit_class_description": "Near-Earth asteroid orbits which cross the Earth’s orbit similar to that of 1862 Apollo",
            "orbit_class_range": "a (semi-major axis) > 1.0 AU; q (perihelion) < 1.017 AU"
        }
    },
    "is_sentry_object": false
}